SL-14 R/B               
1 16792U 86046B   26067.12344990  .00000649  00000+0  71959-4 0  9995
2 16792  82.4782  81.6620 0021866 230.7923 129.1353 14.85588860126174
SL-14 R/B               
1 16882U 86055B   26067.11947471  .00000625  00000+0  69185-4 0  9999
2 16882  82.5204 128.1501 0018309 341.9469  81.4658 14.85641381119131
AJISAI (EGS)            
1 16908U 86061A   26067.10346585 -.00000090  00000+0  52532-4 0  9998
2 16908  50.0080  98.2256 0011262 282.9167 120.0189 12.44515683467803
SL-14 R/B               
1 17567U 87024B   26067.15742282  .00000619  00000+0  67737-4 0  9998
2 17567  82.5249  94.2044 0016686 265.5236  94.4074 14.86130589 87904
COSMOS 1833             
1 17589U 87027A   26067.16132553 -.00000153  00000+0 -56195-4 0  9991
2 17589  70.9228 329.2309 0024344 216.6739 143.2717 14.13055218 10106
SL-16 R/B               
1 17590U 87027B   26066.99825810 -.00000006  00000+0  21012-4 0  9994
2 17590  71.0011 280.0598 0003530 146.3606 213.7743 14.17165820 15102
SL-14 R/B               
1 17912U 87038B   26067.15160889  .00000583  00000+0  64695-4 0  9994
2 17912  82.5003 298.2570 0019546 165.4100 194.7685 14.85367987 79009
COSMOS 1844             
1 17973U 87041A   26067.12740572 -.00000132  00000+0 -43384-4 0  9999
2 17973  70.8998  37.4699 0029912  20.1068 340.1224 14.14552624  3360
SL-14 R/B               
1 18153U 87055B   26066.85939882  .00000824  00000+0  92001-4 0  9994
2 18153  82.5030 350.7558 0021311  23.7418 336.4776 14.85627282 69662
COSMOS 1867             
1 18187U 87060A   26067.04404005 -.00000004  00000+0  36250-4 0  9998
2 18187  65.0115 311.3142 0014467 278.5545  81.3900 14.31502786 19703
SL-14 R/B               
1 18749U 88001B   26066.78721481  .00000845  00000+0  94877-4 0  9999
2 18749  82.5150 197.1489 0016740 242.4821 117.4694 14.85525401 41745
COSMOS 1933             
1 18958U 88020A   26067.01029624  .00006155  00000+0  30160-3 0  9993
2 18958  82.5096 252.5735 0003692 186.9615 173.1569 15.17964581 49976
